IRIDIUM 26              
1 24903U 97043A   25275.12978595  .00001124  00000+0  37123-3 0  9994
2 24903  86.3921  65.6532 0002287  90.2267 269.9192 14.37232679472107
IRIDIUM 22              
1 24907U 97043E   25275.14826330  .00000978  00000+0  32974-3 0  9994
2 24907  86.3919  69.2792 0002144  87.2590 272.8852 14.36035500472124
DUMMY MASS 1            
1 24925U 97048A   25275.00928654  .00001114  00000+0  12101-3 0  9999
2 24925  86.3290  85.9053 0008594 117.8614 242.3483 14.87077685521003
DUMMY MASS 2            
1 24926U 97048B   25274.98924770  .00001109  00000+0  12119-3 0  9994
2 24926  86.3290  87.5436 0009082 128.2221 231.9823 14.86828843520774
IRIDIUM 29              
1 24944U 97051A   25275.06311720  .00001060  00000+0  35431-3 0  9991
2 24944  86.3897  99.0510 0001929  86.0514 274.0904 14.36556767468616
IRIDIUM 33              
1 24946U 97051C   25275.02342372  .00000799  00000+0  27387-3 0  9995
2 24946  86.3811  98.3369 0009981  89.5342 270.6998 14.34957275468062
IRIDIUM 28              
1 24948U 97051E   25275.03873093  .00001042  00000+0  34206-3 0  9997
2 24948  86.3901  96.5135 0002652  89.3124 270.8378 14.37463381469191
IRIDIUM 36              
1 24967U 97056C   25275.12443793  .00000837  00000+0  27224-3 0  9996
2 24967  86.3950 128.1063 0002311  82.0506 278.0954 14.37689481467586
